<?xml version="1.0" encoding="UTF-8"?>
<kml xmlns="http://www.opengis.net/kml/2.2" xmlns:atom="http://www.w3.org/2005/Atom">
	<Document>
		<name>Panda Exteriors</name>
		<atom:link href="https://pandaexteriors.com/"/>
		<Placemark>
			<name>Panda Exteriors Laurel, MD</name>
			<atom:link href="https://pandaexteriors.com/locations/laurel-md/"/>
			<address>14409 Greenview Dr Suite 202, Laurel, MD 20708</address>
			<phoneNumber>(240) 574-1048</phoneNumber>
			<description>Roofing, solar, siding and gutters in Maryland. https://pandaexteriors.com/locations/laurel-md/</description>
			<Point><coordinates>-76.8483,39.0993,0</coordinates></Point>
		</Placemark>
		<Placemark>
			<name>Panda Exteriors Dover, DE</name>
			<atom:link href="https://pandaexteriors.com/locations/dover-de/"/>
			<address>8 The Green, Dover, DE 19901</address>
			<phoneNumber>(302) 358-2444</phoneNumber>
			<description>Roofing, solar, siding and gutters in Delaware. https://pandaexteriors.com/locations/dover-de/</description>
			<Point><coordinates>-75.5268,39.1567,0</coordinates></Point>
		</Placemark>
		<Placemark>
			<name>Panda Exteriors Tampa, FL</name>
			<atom:link href="https://pandaexteriors.com/locations/tampa-fl/"/>
			<address>4406 W Linebaugh Ave Ste 4, Tampa, FL 33624</address>
			<phoneNumber>(656) 216-0521</phoneNumber>
			<description>Roofing, solar, siding and gutters in Florida. https://pandaexteriors.com/locations/tampa-fl/</description>
			<Point><coordinates>-82.5175,28.0396,0</coordinates></Point>
		</Placemark>
		<Placemark>
			<name>Panda Exteriors Marlton, NJ</name>
			<atom:link href="https://pandaexteriors.com/locations/marlton-nj/"/>
			<address>1 Holtec Dr Suite 201, Marlton, NJ 08053</address>
			<phoneNumber>(856) 343-4146</phoneNumber>
			<description>Roofing, solar, siding and gutters in New Jersey. https://pandaexteriors.com/locations/marlton-nj/</description>
			<Point><coordinates>-74.9395,39.9019,0</coordinates></Point>
		</Placemark>
		<Placemark>
			<name>Panda Exteriors Charlotte, NC</name>
			<atom:link href="https://pandaexteriors.com/locations/charlotte-nc/"/>
			<address>1120 S Tryon St Ste 200, Charlotte, NC 28203</address>
			<phoneNumber>(980) 223-5623</phoneNumber>
			<description>Roofing, solar, siding and gutters in North Carolina. https://pandaexteriors.com/locations/charlotte-nc/</description>
			<Point><coordinates>-80.853,35.2196,0</coordinates></Point>
		</Placemark>
		<Placemark>
			<name>Panda Exteriors King of Prussia, PA</name>
			<atom:link href="https://pandaexteriors.com/locations/king-of-prussia-pa/"/>
			<address>660 American Ave Ste 205, King of Prussia, PA 19406</address>
			<phoneNumber>(484) 224-7623</phoneNumber>
			<description>Roofing, solar, siding and gutters in Pennsylvania. https://pandaexteriors.com/locations/king-of-prussia-pa/</description>
			<Point><coordinates>-75.3941,40.0944,0</coordinates></Point>
		</Placemark>
		<Placemark>
			<name>Panda Exteriors Reston, VA</name>
			<atom:link href="https://pandaexteriors.com/locations/reston-va/"/>
			<address>11260 Roger Bacon Dr, Reston, VA 20190</address>
			<phoneNumber>(571) 451-2773</phoneNumber>
			<description>Roofing, solar, siding and gutters in Virginia. https://pandaexteriors.com/locations/reston-va/</description>
			<Point><coordinates>-77.3372,38.9521,0</coordinates></Point>
		</Placemark>
	</Document>
</kml>
